{
  "norad_id": 64674,
  "name": "STARLINK-34539",
  "history": [
    {
      "epoch": "2026-03-28T20:59:09.521664Z",
      "apogee_km": 475.7995616389744,
      "perigee_km": 474.5798065557383,
      "latitude_deg": -1.8127669573768895e-05,
      "longitude_deg": -103.3094865229011,
      "height_km": 475.9554302511556,
      "semi_major_axis_km": 6853.326684097356,
      "eccentricity": 8.899e-05,
      "inclination_deg": 53.1611,
      "raan_deg": 37.7688,
      "arg_perigee_deg": 77.4044,
      "mean_anomaly_deg": 282.7056,
      "mean_motion_rev_day": 15.30208502
    },
    {
      "epoch": "2026-03-29T03:15:22.218912Z",
      "apogee_km": 475.96580124424054,
      "perigee_km": 474.45395292315607,
      "latitude_deg": 3.108795077051053e-06,
      "longitude_deg": 161.16391641426748,
      "height_km": 476.0714246201906,
      "semi_major_axis_km": 6853.346877083698,
      "eccentricity": 0.0001103,
      "inclination_deg": 53.1604,
      "raan_deg": 36.5526,
      "arg_perigee_deg": 87.2096,
      "mean_anomaly_deg": 272.9031,
      "mean_motion_rev_day": 15.30201739
    },
    {
      "epoch": "2026-03-30T01:12:06.998400Z",
      "apogee_km": 475.9686004369905,
      "perigee_km": 474.5352826737544,
      "latitude_deg": 5.599419781534438e-05,
      "longitude_deg": -173.17100572203873,
      "height_km": 475.8615134592658,
      "semi_major_axis_km": 6853.388941555372,
      "eccentricity": 0.00010457,
      "inclination_deg": 53.161,
      "raan_deg": 32.3055,
      "arg_perigee_deg": 66.2156,
      "mean_anomaly_deg": 293.8955,
      "mean_motion_rev_day": 15.30187651
    },
    {
      "epoch": "2026-03-30T05:54:16.972128Z",
      "apogee_km": 475.9960969928243,
      "perigee_km": 474.5322105063833,
      "latitude_deg": -1.0633955535568318e-05,
      "longitude_deg": 115.18455174485278,
      "height_km": 476.03245400750166,
      "semi_major_axis_km": 6853.4011537496035,
      "eccentricity": 0.0001068,
      "inclination_deg": 53.1617,
      "raan_deg": 31.3958,
      "arg_perigee_deg": 79.7494,
      "mean_anomaly_deg": 280.3627,
      "mean_motion_rev_day": 15.30183561
    },
    {
      "epoch": "2026-03-30T20:00:45.805536Z",
      "apogee_km": 476.10531140825697,
      "perigee_km": 474.25943836782426,
      "latitude_deg": 4.460903015638603e-06,
      "longitude_deg": -99.74657088333615,
      "height_km": 476.339248350426,
      "semi_major_axis_km": 6853.31937488804,
      "eccentricity": 0.00013467,
      "inclination_deg": 53.1613,
      "raan_deg": 28.6642,
      "arg_perigee_deg": 106.2776,
      "mean_anomaly_deg": 253.8373,
      "mean_motion_rev_day": 15.3021095
    },
    {
      "epoch": "2026-03-31T19:31:32.644992Z",
      "apogee_km": 475.75823851402583,
      "perigee_km": 474.4602336769085,
      "latitude_deg": -3.173951901871666e-05,
      "longitude_deg": -97.95480596441787,
      "height_km": 475.92556305840736,
      "semi_major_axis_km": 6853.246236095467,
      "eccentricity": 9.47e-05,
      "inclination_deg": 53.1633,
      "raan_deg": 24.1168,
      "arg_perigee_deg": 82.6908,
      "mean_anomaly_deg": 277.42,
      "mean_motion_rev_day": 15.30235446
    },
    {
      "epoch": "2026-04-01T20:00:01.999008Z",
      "apogee_km": 475.9776095635225,
      "perigee_km": 474.5109859658005,
      "latitude_deg": -31.771997891573644,
      "longitude_deg": 96.65838468453894,
      "height_km": 485.7016539233697,
      "semi_major_axis_km": 6853.381297764661,
      "eccentricity": 0.000107,
      "inclination_deg": 53.1611,
      "raan_deg": 19.3782,
      "arg_perigee_deg": 72.6807,
      "mean_anomaly_deg": 148.1608,
      "mean_motion_rev_day": 15.30190211
    },
    {
      "epoch": "2026-04-02T18:33:09.064512Z",
      "apogee_km": 475.8700514813718,
      "perigee_km": 474.39385734859025,
      "latitude_deg": -1.8537206547437243e-06,
      "longitude_deg": -94.39035102607761,
      "height_km": 475.93143485001025,
      "semi_major_axis_km": 6853.268954414981,
      "eccentricity": 0.0001077,
      "inclination_deg": 53.1613,
      "raan_deg": 15.0143,
      "arg_perigee_deg": 82.29,
      "mean_anomaly_deg": 277.8223,
      "mean_motion_rev_day": 15.30227837
    },
    {
      "epoch": "2026-04-03T18:03:59.933664Z",
      "apogee_km": 477.148863985969,
      "perigee_km": 473.6535594979814,
      "latitude_deg": 7.959990158939018e-06,
      "longitude_deg": -92.61678943062623,
      "height_km": 476.2868653973097,
      "semi_major_axis_km": 6853.538211741975,
      "eccentricity": 0.000255,
      "inclination_deg": 53.1606,
      "raan_deg": 10.4655,
      "arg_perigee_deg": 89.6527,
      "mean_anomaly_deg": 270.4766,
      "mean_motion_rev_day": 15.3013766
    },
    {
      "epoch": "2026-04-04T19:08:47.949216Z",
      "apogee_km": 475.9328774719188,
      "perigee_km": 473.9537078833937,
      "latitude_deg": 1.0271064545259236e-05,
      "longitude_deg": -114.70165246350463,
      "height_km": 475.7775617472662,
      "semi_major_axis_km": 6853.080292677656,
      "eccentricity": 0.0001444,
      "inclination_deg": 53.1601,
      "raan_deg": 5.6107,
      "arg_perigee_deg": 86.3142,
      "mean_anomaly_deg": 273.8024,
      "mean_motion_rev_day": 15.30291027
    },
    {
      "epoch": "2026-04-05T10:49:21.093312Z",
      "apogee_km": 476.05207355364746,
      "perigee_km": 474.3984943017813,
      "latitude_deg": 5.477586764152062e-05,
      "longitude_deg": 6.481994054148104,
      "height_km": 476.8088027013617,
      "semi_major_axis_km": 6853.362283927714,
      "eccentricity": 0.00012064,
      "inclination_deg": 53.1583,
      "raan_deg": 2.5762,
      "arg_perigee_deg": 145.928,
      "mean_anomaly_deg": 214.1799,
      "mean_motion_rev_day": 15.30196579
    },
    {
      "epoch": "2026-04-05T17:05:33.991872Z",
      "apogee_km": 476.065326356339,
      "perigee_km": 474.1971254379587,
      "latitude_deg": 1.3395452593804378e-05,
      "longitude_deg": -89.04199124655264,
      "height_km": 476.79343216582225,
      "semi_major_axis_km": 6853.268225897148,
      "eccentricity": 0.0001363,
      "inclination_deg": 53.1579,
      "raan_deg": 1.3635,
      "arg_perigee_deg": 144.8445,
      "mean_anomaly_deg": 215.2646,
      "mean_motion_rev_day": 15.30228081
    },
    {
      "epoch": "2026-04-06T04:03:54.749952Z",
      "apogee_km": 475.9583288173235,
      "perigee_km": 474.01724975200705,
      "latitude_deg": 3.380453566595084e-05,
      "longitude_deg": 103.79740922123655,
      "height_km": 476.81823112057407,
      "semi_major_axis_km": 6853.124789284665,
      "eccentricity": 0.00014162,
      "inclination_deg": 53.1582,
      "raan_deg": 359.24,
      "arg_perigee_deg": 163.6749,
      "mean_anomaly_deg": 196.4298,
      "mean_motion_rev_day": 15.30276123
    }
  ]
}